{
  "norad_id": 47936,
  "name": "GRUS-1D",
  "history": [
    {
      "epoch": "2026-04-30T15:51:44.384832Z",
      "apogee_km": 579.8607020698137,
      "perigee_km": 562.716469150113,
      "latitude_deg": 3.7911157592764945e-05,
      "longitude_deg": -90.91692045974682,
      "height_km": 576.360723825239,
      "semi_major_axis_km": 6949.425585609963,
      "eccentricity": 0.0012335,
      "inclination_deg": 97.546,
      "raan_deg": 5.6225,
      "arg_perigee_deg": 103.7829,
      "mean_anomaly_deg": 256.4768,
      "mean_motion_rev_day": 14.98578159
    },
    {
      "epoch": "2026-05-02T12:43:57.969120Z",
      "apogee_km": 579.8168997925313,
      "perigee_km": 562.7296897597362,
      "latitude_deg": -2.8228620593862203e-05,
      "longitude_deg": -44.007779127260584,
      "height_km": 575.5883216112965,
      "semi_major_axis_km": 6949.410294776134,
      "eccentricity": 0.0012294,
      "inclination_deg": 97.545,
      "raan_deg": 7.431,
      "arg_perigee_deg": 98.6558,
      "mean_anomaly_deg": 261.6058,
      "mean_motion_rev_day": 14.98583105
    }
  ]
}